GLOBALSTAR M094 [+]     
1 39074U 13005C   24059.70600067 -.00000086  00000+0  99433-4 0  9994
2 39074  51.9942 186.7711 0000600  98.2010 261.8924 12.62263204512459
GLOBALSTAR M078 [+]     
1 39076U 13005E   24059.93076431 -.00000152  00000+0 -26732-3 0  9999
2 39076  51.9895 319.3913 0000721 173.4127 186.6749 12.62261368510024
GLOBALSTAR M095 [+]     
1 39077U 13005F   24060.11504995 -.00000072  00000+0  17838-3 0  9990
2 39077  51.9817 316.2593 0000076 120.0552 240.0322 12.62263843510260
GLOBALSTAR M087 [+]     
1 52888U 22064A   24059.78902590 -.00000106  00000+0  42966-4 0  9993
2 52888  51.9737 229.8456 0010316  87.5921 272.6161 13.37566286 82882
